[{"OBJECT_NAME":"STARLINK-30279","OBJECT_ID":"2023-144X","EPOCH":"2026-03-09T00:00:04.000320","MEAN_MOTION":15.26701549,"ECCENTRICITY":0.00014879,"INCLINATION":43,"RA_OF_ASC_NODE":288.715,"ARG_OF_PERICENTER":259.326,"MEAN_ANOMALY":199.1729,"EPHEMERIS_TYPE":0,"CLASSIFICATION_TYPE":"U","NORAD_CAT_ID":57885,"ELEMENT_SET_NO":999,"REV_AT_EPOCH":578,"BSTAR":0.0021326377,"MEAN_MOTION_DOT":0.00057324,"MEAN_MOTION_DDOT":0},{"OBJECT_NAME":"SL-3 DEB","OBJECT_ID":"1988-032D","EPOCH":"2026-03-09T21:36:49.536576","MEAN_MOTION":15.21301321,"ECCENTRICITY":0.00302448,"INCLINATION":97.5102,"RA_OF_ASC_NODE":52.3226,"ARG_OF_PERICENTER":221.5268,"MEAN_ANOMALY":138.367,"EPHEMERIS_TYPE":0,"CLASSIFICATION_TYPE":"U","NORAD_CAT_ID":25655,"ELEMENT_SET_NO":999,"REV_AT_EPOCH":5124,"BSTAR":0.00031081119,"MEAN_MOTION_DOT":6.967e-5,"MEAN_MOTION_DDOT":0}]
